COSMOS 1953             
1 19210U 88050A   24132.39351825  .00030564  00000+0  16490-2 0  9991
2 19210  82.5126 102.6861 0012633 302.5541  57.4470 15.14544397957425
SL-8 R/B                
1 19257U 88053B   24132.13816472  .00002249  00000+0  74774-3 0  9990
2 19257  74.0475 262.2631 0021150 249.8521 149.4896 14.38159405880888
COSMOS 1975             
1 19573U 88093A   24132.53789641  .00030005  00000+0  16506-2 0  9995
2 19573  82.5287  60.0925 0014531 355.0340   5.0745 15.13831684939153
SL-14 R/B               
1 19574U 88093B   24131.90952334  .00001309  00000+0  15219-3 0  9993
2 19574  82.5291 308.3268 0022686  86.5799  26.0811 14.84403226923010
SL-16 R/B               
1 19650U 88102B   24132.36819125  .00000512  00000+0  28354-3 0  9999
2 19650  70.9970 115.4261 0016160 301.7251  58.2296 14.15966404832700
INTERCOSMOS 24          
1 20261U 89080A   24132.18056183  .00001832  00000+0  53726-3 0  9999
2 20261  82.6072 178.1849 1195537  40.0627 328.2708 12.57945560582409
SL-14 R/B               
1 20262U 89080C   24132.57766500  .00000696  00000+0  21323-3 0  9999
2 20262  82.5955 241.3641 1232596 268.9024  77.0962 12.49651329576368
DELTA 1 R/B             
1 20323U 89089B   24131.85689065  .00001497  00000+0  38718-3 0  9992
2 20323  97.1149  72.3540 0072048  70.2252 290.6697 14.49449910798944
ARIANE 40 R/B           
1 20443U 90005H   24131.75506921  .00000827  00000+0  28208-3 0  9992
2 20443  98.3950 198.0898 0011244  56.3678 303.8581 14.38904381796718
DELTA 2 R/B(1)          
1 20453U 90008B   24131.92920117  .00040367  00000+0  15537-2 0  9995
2 20453  35.6189  60.6217 0204161  64.0256 298.1345 15.08215415823891
COSMOS 2058             
1 20465U 90010A   24131.83761246  .00007579  00000+0  55681-3 0  9990
2 20465  82.4860 340.5945 0015621  74.7300 285.5651 15.03209286841611
SL-14 R/B               
1 20466U 90010B   24132.55199038  .00001468  00000+0  17989-3 0  9995
2 20466  82.5031 173.4426 0019595 341.6994  18.3512 14.82399543850664
SL-14 R/B               
1 20511U 90018B   24132.06988845  .00002421  00000+0  30885-3 0  9992
2 20511  82.5191 126.6444 0017982 124.2508 236.0412 14.81006265844819
HST                     
1 20580U 90037B   24132.55412774  .00022515  00000+0  10902-2 0  9999
2 20580  28.4678 230.4826 0002397   9.6077 350.4561 15.17216451671727
SL-16 R/B               
1 20625U 90046B   24132.54282317  .00000356  00000+0  20887-3 0  9999
2 20625  70.9987 258.8501 0016175 241.9005 118.0483 14.14826557754270
COSMOS 2084             
1 20663U 90055A   24132.19850285  .00008308  00000+0  61996-3 0  9998
2 20663  62.7918  81.3614 0115855 116.5998 244.7025 14.98276981836038
SL-6 R/B(2)             
1 20666U 90055D   24132.56722400  .00010600  00000+0  83809-3 0  9994
2 20666  62.7856 353.9061 0091598 139.3418 221.4566 14.97822065837518
SL-8 R/B                
1 20775U 90078B   24132.42977708  .00042655  00000+0  17015-2 0  9998
2 20775  82.9141 117.9151 0477737  51.4393 312.8617 14.58811835710957
SL-8 R/B                
1 21088U 91006B   24132.57147722  .00000408  00000+0  39524-3 0  9999
2 21088  82.9397 306.2796 0023889 103.0852 319.8542 13.77338518672509
OKEAN-3                 
1 21397U 91039A   24131.83418938  .00008321  00000+0  70108-3 0  9991
2 21397  82.5193 260.7603 0017383  77.4822 282.8344 14.97963899764809
COSMOS 2151             
1 21422U 91042A   24132.37846367  .00011018  00000+0  98645-3 0  9998
2 21422  82.5005   5.2209 0014284 143.4955 216.7244 14.95655657784436
SL-14 R/B               
1 21423U 91042B   24132.46412319  .00003033  00000+0  39049-3 0  9996
2 21423  82.4908 125.4320 0015691 272.8790  87.0627 14.80741498775330
ERS-1                   
1 21574U 91050A   24131.92962841  .00000916  00000+0  31287-3 0  9995
2 21574  98.7770 122.7871 0033039  24.1443 336.1283 14.38500555719697
ARIANE 40 R/B           
1 21610U 91050F   24131.74942140  .00000919  00000+0  29428-3 0  9993
2 21610  98.2916 194.7450 0001956 310.8633  49.2387 14.41818111722703
INTERCOSMOS 25          
1 21819U 91086A   24132.06632405  .00007044  00000+0  13933-2 0  9998
2 21819  82.6082 352.6649 1501903 112.7023 263.9559 12.08659596415931
SL-8 R/B                
1 21876U 92008B   24132.53536191  .00000266  00000+0  25843-3 0  9996
2 21876  82.9298  43.8635 0034225 195.8017 337.3134 13.75822699617909
SL-8 R/B                
1 21938U 92020B   24131.92618410  .00000254  00000+0  24813-3 0  9999
2 21938  82.9276 289.6733 0029151   4.3915 106.6960 13.75412652609332
COSMOS 2219             
1 22219U 92076A   24131.99018888 -.00000096  00000+0 -25811-4 0  9999
2 22219  71.0610 333.6541 0016644 147.1152 213.1009 14.13856951624326
SL-16 R/B               
1 22220U 92076B   24131.80422690 -.00000107  00000+0 -29697-4 0  9990
2 22220  70.9980 155.0669 0011695  23.5495 148.8502 14.16650330627232
COSMOS 2221             
1 22236U 92080A   24132.23118017  .00003723  00000+0  36851-3 0  9999
2 22236  82.5075 196.1971 0014022 268.0215  91.9398 14.91557825702174
SL-16 R/B               
1 22285U 92093B   24131.93850125  .00000369  00000+0  21394-3 0  9995
2 22285  71.0214 325.8675 0006252 252.0427 108.0015 14.15248454618995
COSMOS 2228             
1 22286U 92094A   24132.51893579  .00008488  00000+0  83093-3 0  9996
2 22286  82.5175 153.7794 0020288  27.7484 332.4813 14.92037796697451
SL-16 R/B               
1 22566U 93016B   24132.19814239 -.00000041  00000+0  36325-5 0  9998
2 22566  71.0070 176.9379 0012802 261.5231  98.4441 14.15131319607746
COSMOS 2242             
1 22626U 93024A   24132.20985611  .00004153  00000+0  40915-3 0  9994
2 22626  82.5211 182.8793 0018296  30.3777 329.8499 14.91708716681025
SL-16 R/B               
1 22803U 93059B   24131.94922720  .00000171  00000+0  10896-3 0  9992
2 22803  70.9912 339.0622 0016143 154.6276 205.5643 14.17022984584938
ARIANE 40 R/B           
1 22830U 93061H   24132.45929237  .00003163  00000+0  11915-2 0  9998
2 22830  98.5725 200.5169 0012059  96.4881 263.7676 14.32098607598828
COSMOS 2278             
1 23087U 94023A   24131.69541359  .00000244  00000+0  15312-3 0  9995
2 23087  71.0500 132.3924 0009942 317.5999  42.4354 14.14075484550365
SL-16 R/B               
1 23088U 94023B   24131.92619805 -.00000008  00000+0  20775-4 0  9993
2 23088  71.0013  33.0905 0005315 246.5179 113.5385 14.14836688551638
SL-16 R/B               
1 23343U 94074B   24132.09759303  .00003157  00000+0  44390-3 0  9995
2 23343  97.7906 176.2802 0005655 222.5346 191.0425 14.78029113588791
SL-16 R/B               
1 23405U 94077B   24132.52048338  .00000048  00000+0  49386-4 0  9991
2 23405  70.9831 315.9138 0000407 146.5795 213.5353 14.15388723522094
ARIANE 40+ R/B          
1 23561U 95021B   24132.46790176  .00003662  00000+0  12040-2 0  9991
2 23561  98.5288 199.1382 0006405 348.5950  22.9630 14.38836456523483
SL-16 R/B               
1 23705U 95058B   24131.71887852  .00000210  00000+0  13235-3 0  9990
2 23705  71.0193 142.4903 0010684  51.4977 308.7103 14.15308440473337
SL-16 R/B               
1 24298U 96051B   24131.76215058 -.00000213  00000+0 -88531-4 0  9997
2 24298  70.8050 147.8100 0014960  33.7700 326.4370 14.12483931427338
ORBVIEW 2 (SEASTAR)     
1 24883U 97037A   24132.38877869  .00003610  00000+0  12956-2 0  9993
2 24883  98.7698 271.7284 0001699 195.5020 164.6112 14.34514950413029
SL-16 R/B               
1 25400U 98043G   24131.85597547  .00000259  00000+0  12766-3 0  9996
2 25400  98.7431  73.0072 0010379 147.4856 212.6965 14.25739725344040
SL-16 R/B               
1 25407U 98045B   24131.77014961  .00000038  00000+0  43668-4 0  9991
2 25407  71.0094 146.0105 0009129 311.6795  48.3546 14.15996829332542
ISS (ZARYA)             
1 25544U 98067A   24132.49518146 -.00008485  00000+0 -13500-3 0  9998
2 25544  51.6377 137.3000 0003376 160.7195 340.3320 15.51165706452859
CZ-4B R/B               
1 25732U 99025C   24132.42114950  .00001287  00000+0  64557-3 0  9999
2 25732  98.7544 178.0596 0038391 101.0491 270.8105 14.17959032293732
OKEAN-O                 
1 25860U 99039A   24132.12919511  .00004764  00000+0  66142-3 0  9994
2 25860  98.0388 184.5554 0001280  69.1667 290.9681 14.78373399335771
SL-16 R/B               
1 25861U 99039B   24132.38510475  .00004634  00000+0  61812-3 0  9994
2 25861  98.0916 178.0744 0013888 256.6545 103.3118 14.80035929338225
DELTA 2 R/B             
1 25876U 99041E   24132.05138296  .00003734  00000+0  65345-3 0  9999
2 25876  51.7637  81.0903 0517792 182.9121 176.8757 14.08095151268848
HELIOS 1B               
1 25977U 99064A   24132.16395738  .00002707  00000+0  32981-3 0  9993
2 25977  98.2496   2.5709 0002555  80.1662 279.9839 14.84274473317421
TERRA                   
1 25994U 99068A   24132.48495669  .00007120  00000+0  15002-2 0  9993
2 25994  98.0493 197.0484 0003376 109.3453 308.6581 14.59743707297816
SL-16 R/B               
1 26070U 00006B   24131.89586986  .00000203  00000+0  12804-3 0  9993
2 26070  71.0036  61.7956 0014629 122.5140 237.7399 14.15632280254042
TITAN 4B R/B            
1 26474U 00047B   24132.37572121  .00020449  00000+0  15400-2 0  9994
2 26474  67.9917 106.6499 0044263  65.8866 294.6899 15.01728870292512
ENVISAT                 
1 27386U 02009A   24132.51837910  .00001643  00000+0  55081-3 0  9998
2 27386  98.2800  94.8873 0001196  87.2746  24.1748 14.38570194163306
IDEFIX & ARIANE 42P R/B 
1 27422U 02021B   24132.41938478  .00003309  00000+0  12956-2 0  9997
2 27422  98.5260  70.8433 0012083 358.5228   1.5917 14.30096611146714
AQUA                    
1 27424U 02022A   24132.49517361  .00012988  00000+0  27573-2 0  9996
2 27424  98.3286  81.7348 0001039 109.1619   4.4619 14.59239628171369
CZ-4B R/B               
1 27432U 02024C   24131.74917093  .00000189  00000+0  12067-3 0  9993
2 27432  98.9783 173.8841 0051295 116.6008   4.0910 14.14310583134811
